API VERSION: 1.2
API SOURCE: NASA/JPL Horizons API

*******************************************************************************
 Revised: April 12, 2021               Jupiter                              599
 
 PHYSICAL DATA (revised 2025-Jan-30):
  Mass x 10^26 (kg)     = 18.9819           Density (g/cm^3)  = 1.3262 +- .0003
  Equat. radius (1 bar) = 71492+-4 km       Polar radius (km)     = 66854+-10
  Vol. Mean Radius (km) = 69911+-6          Flattening            = 0.06487
  Geometric Albedo      = 0.52              Rocky core mass (Mc/M)= 0.0261
  Sid. rot. period (III)= 9h 55m 29.711 s   Sid. rot. rate (rad/s)= 0.00017585
  Mean solar day, hrs   = ~9.9259         
  GM (km^3/s^2)         = 126686531.900     GM 1-sigma (km^3/s^2) =  +- 1.2732
  Equ. grav, ge (m/s^2) = 24.79             Pol. grav, gp (m/s^2) =  28.34
  Vis. magnitude V(1,0) = -9.40
  Vis. mag. (opposition)= -2.70             Obliquity to orbit    =  3.13 deg
  Sidereal orbit period = 11.861982204 y    Sidereal orbit period = 4332.589 d
  Mean daily motion     = 0.0831294 deg/d   Mean orbit speed, km/s= 13.0697
  Atmos. temp. (1 bar)  = 165+-5 K          Escape speed, km/s    =  59.5           
  A_roche(ice)/Rp       =  2.76             Hill's sphere rad. Rp = 740
                                 Perihelion   Aphelion     Mean
  Solar Constant (W/m^2)         56           46           51
  Maximum Planetary IR (W/m^2)   13.7         13.4         13.6
  Minimum Planetary IR (W/m^2)   13.7         13.4         13.6
*******************************************************************************


*******************************************************************************
Ephemeris / API_USER Thu Feb 19 13:06:18 2026 Pasadena, USA      / Horizons
*******************************************************************************
Target body name: Jupiter (599)                   {source: jup365_merged}
Center body name: Sun (10)                        {source: jup365_merged}
Center-site name: BODY CENTER
*******************************************************************************
Start time      : A.D. 2025-May-18 16:59:00.0000 TDB
Stop  time      : A.D. 2025-May-21 16:59:00.0000 TDB
Step-size       : 60 minutes
*******************************************************************************
Center geodetic : 0.0, 0.0, 0.0                   {E-lon(deg),Lat(deg),Alt(km)}
Center cylindric: 0.0, 0.0, 0.0                   {E-lon(deg),Dxy(km),Dz(km)}
Center radii    : 695700.0, 695700.0, 695700.0 km {Equator_a, b, pole_c}
Output units    : AU-D
Calendar mode   : Mixed Julian/Gregorian
Output type     : GEOMETRIC cartesian states
Output format   : 3 (position, velocity, LT, range, range-rate)
Reference frame : Ecliptic of J2000.0
*******************************************************************************
JDTDB
   X     Y     Z
   VX    VY    VZ
   LT    RG    RR
*******************************************************************************
$$SOE
2460816.124305556 = A.D. 2025-May-20 14:59:00.0000 TDB 
 X =-3.179566916826572E-03 Y = 5.130282217480802E+00 Z =-2.123983282277477E-02
 VX=-7.640714342384751E-03 VY= 3.508154065630815E-04 VZ= 1.695329654851451E-04
 LT= 2.963029861655004E-02 RG= 5.130327169990609E+00 RR= 3.548458591991361E-04
2460816.165972222 = A.D. 2025-May-20 15:59:00.0000 TDB 
 X =-3.497931879857204E-03 Y = 5.130296825027147E+00 Z =-2.123276893624820E-02
 VX=-7.640803658368399E-03 VY= 3.503450136267804E-04 VZ= 1.695335253647488E-04
 LT= 2.963038400969987E-02 RG= 5.130341955356168E+00 RR= 3.548498855337016E-04
2460816.207638889 = A.D. 2025-May-20 16:59:00.0000 TDB 
 X =-3.816300526150315E-03 Y = 5.130311412750613E+00 Z =-2.122570503396721E-02
 VX=-7.640890897482155E-03 VY= 3.498639721693889E-04 VZ= 1.695337274112942E-04
 LT= 2.963046940253122E-02 RG= 5.130356740666588E+00 RR= 3.548432758996253E-04
2460816.249305556 = A.D. 2025-May-20 17:59:00.0000 TDB 
 X =-4.134672739461669E-03 Y = 5.130325980216872E+00 Z =-2.121864113008093E-02
 VX=-7.640974646153401E-03 VY= 3.493727642526669E-04 VZ= 1.695336092331120E-04
 LT= 2.963055479253845E-02 RG= 5.130371525488020E+00 RR= 3.548265105052100E-04
2460816.290972222 = A.D. 2025-May-20 18:59:00.0000 TDB 
 X =-4.453048346384488E-03 Y = 5.130340527015700E+00 Z =-2.121157723704796E-02
 VX=-7.641053578555729E-03 VY= 3.488720630075932E-04 VZ= 1.695332140113262E-04
 LT= 2.963064017735457E-02 RG= 5.130386309410645E+00 RR= 3.548002602439329E-04
2460816.332638889 = A.D. 2025-May-20 19:59:00.0000 TDB 
 X =-4.771427120547272E-03 Y = 5.130355052768683E+00 Z =-2.120451336542953E-02
 VX=-7.641126482386409E-03 VY= 3.483627195480283E-04 VZ= 1.695325896702220E-04
 LT= 2.963072555479583E-02 RG= 5.130401092056349E+00 RR= 3.547653736690589E-04
2460816.374305556 = A.D. 2025-May-20 20:59:00.0000 TDB 
 X =-5.089808787854309E-03 Y = 5.130369557136297E+00 Z =-2.119744952370748E-02
 VX=-7.641192283059272E-03 VY= 3.478457465394933E-04 VZ= 1.695317879539826E-04
 LT= 2.963081092290235E-02 RG= 5.130415873085797E+00 RR= 3.547228606333513E-04
2460816.415972222 = A.D. 2025-May-20 21:59:00.0000 TDB 
 X =-5.408193032690014E-03 Y = 5.130384039824238E+00 Z =-2.119038571814119E-02
 VX=-7.641250065614504E-03 VY= 3.473222980965847E-04 VZ= 1.695308634067881E-04
 LT= 2.963089627997477E-02 RG= 5.130430652204748E+00 RR= 3.546738722658705E-04
2460816.457638889 = A.D. 2025-May-20 22:59:00.0000 TDB 
 X =-5.726579504972427E-03 Y = 5.130398500588820E+00 Z =-2.118332195268150E-02
 VX=-7.641299093434752E-03 VY= 3.467936457215098E-04 VZ= 1.695298722564985E-04
 LT= 2.963098162460534E-02 RG= 5.130445429169458E+00 RR= 3.546196769961770E-04
2460816.499305556 = A.D. 2025-May-20 23:59:00.0000 TDB 
 X =-6.044967827903446E-03 Y = 5.130412939241310E+00 Z =-2.117625822892255E-02
 VX=-7.641338822786559E-03 VY= 3.462611502713261E-04 VZ= 1.695288712121423E-04
 LT= 2.963106695570295E-02 RG= 5.130460203791008E+00 RR= 3.545616326107069E-04
2460816.540972222 = A.D. 2025-May-21 00:59:00.0000 TDB 
 X =-6.363357606224022E-03 Y = 5.130427355650995E+00 Z =-2.116919454610691E-02
 VX=-7.641368912457807E-03 VY= 3.457262305830929E-04 VZ= 1.695279162049339E-04
 LT= 2.963115227251083E-02 RG= 5.130474975938370E+00 RR= 3.545011549674042E-04
2460816.582638889 = A.D. 2025-May-21 01:59:00.0000 TDB 
 X =-6.681748434767959E-03 Y = 5.130441749746914E+00 Z =-2.116213090118300E-02
 VX=-7.641389228593471E-03 VY= 3.451903305666748E-04 VZ= 1.695270611350447E-04
 LT= 2.963123757461664E-02 RG= 5.130489745540147E+00 RR= 3.544396851757730E-04
2460816.624305556 = A.D. 2025-May-21 02:59:00.0000 TDB 
 X =-7.000139907145814E-03 Y = 5.130456121518249E+00 Z =-2.115506728891780E-02
 VX=-7.641399846602471E-03 VY= 3.446548884768300E-04 VZ= 1.695263567344902E-04
 LT= 2.963132286195475E-02 RG= 5.130504512584976E+00 RR= 3.543786589537134E-04
2460816.665972222 = A.D. 2025-May-21 03:59:00.0000 TDB 
 X =-7.318531624526853E-03 Y = 5.130470471013588E+00 Z =-2.114800370204469E-02
 VX=-7.641401055177552E-03 VY= 3.441213149972432E-04 VZ= 1.695258497264921E-04
 LT= 2.963140813480204E-02 RG= 5.130519277120797E+00 RR= 3.543194847988722E-04
2460816.707638889 = A.D. 2025-May-21 04:59:00.0000 TDB 
 X =-7.636923204798334E-03 Y = 5.130484798339631E+00 Z =-2.114094013144078E-02
 VX=-7.641393372658861E-03 VY= 3.435909909516362E-04 VZ= 1.695255825554031E-04
 LT= 2.963149339377058E-02 RG= 5.130534039253586E+00 RR= 3.542635418049669E-04
2460816.749305556 = A.D. 2025-May-21 05:59:00.0000 TDB 
 X =-7.955314292962484E-03 Y = 5.130499103660494E+00 Z =-2.113387656629300E-02
 VX=-7.641377593940144E-03 VY= 3.430653013084117E-04 VZ= 1.695255940859209E-04
 LT= 2.963157863980366E-02 RG= 5.130548799146671E+00 RR= 3.542122138225913E-04
2460816.790972222 = A.D. 2025-May-21 06:59:00.0000 TDB 
 X =-8.273704570549231E-03 Y = 5.130513387190894E+00 Z =-2.112681299446112E-02
 VX=-7.641354559816509E-03 VY= 3.425452072655197E-04 VZ= 1.695259075009939E-04
 LT= 2.963166387413665E-02 RG= 5.130563557013948E+00 RR= 3.541664613258663E-04
2460816.832638889 = A.D. 2025-May-21 07:59:00.0000 TDB 
 X =-8.592093751588342E-03 Y = 5.130527649188101E+00 Z =-2.111974940276340E-02
 VX=-7.641325185306968E-03 VY= 3.420318498155393E-04 VZ= 1.695265498278610E-04
 LT= 2.963174909825049E-02 RG= 5.130578313111832E+00 RR= 3.541274249468853E-04
2460816.874305556 = A.D. 2025-May-21 08:59:00.0000 TDB 
 X =-8.910481599732832E-03 Y = 5.130541889949400E+00 Z =-2.111268577726227E-02
 VX=-7.641290800598131E-03 VY= 3.415260007926433E-04 VZ= 1.695275312605119E-04
 LT= 2.963183431385729E-02 RG= 5.130593067736773E+00 RR= 3.540958772537746E-04
2460816.915972222 = A.D. 2025-May-21 09:59:00.0000 TDB 
 X =-9.228867933894307E-03 Y = 5.130556109801138E+00 Z =-2.110562210372374E-02
 VX=-7.641252740183162E-03 VY= 3.410282791853257E-04 VZ= 1.695288556886804E-04
 LT= 2.963191952283730E-02 RG= 5.130607821214316E+00 RR= 3.540724384160981E-04
2460816.957638889 = A.D. 2025-May-21 10:59:00.0000 TDB 
 X =-9.547252629569710E-03 Y = 5.130570309091560E+00 Z =-2.109855836790941E-02
 VX=-7.641212388652952E-03 VY= 3.405391106350089E-04 VZ= 1.695305191534256E-04
 LT= 2.963200472719752E-02 RG= 5.130622573891968E+00 RR= 3.540575357987420E-04
2460816.999305556 = A.D. 2025-May-21 11:59:00.0000 TDB 
 X =-9.865635621027938E-03 Y = 5.130584488182108E+00 Z =-2.109149455592238E-02
 VX=-7.641171179616436E-03 VY= 3.400587002087418E-04 VZ= 1.695325091310756E-04
 LT= 2.963208992902167E-02 RG= 5.130637326130514E+00 RR= 3.540513767545801E-04
2460817.040972222 = A.D. 2025-May-21 12:59:00.0000 TDB 
 X =-1.018401690285726E-02 Y = 5.130598647437931E+00 Z =-2.108443065456894E-02
 VX=-7.641130569072414E-03 VY= 3.395870193590731E-04 VZ= 1.695348045117989E-04
 LT= 2.963217513041552E-02 RG= 5.130652078294554E+00 RR= 3.540539355492736E-04
